FENGYUN 1C DEB          
1 31753U 99025CFC 17345.26905358  .00000078  00000-0  55976-4 0  9993
2 31753  98.9748   4.0678 0164141 246.2908 173.0280 14.15632728546329
